{"type": "FeatureCollection", "features": [{"type": "Feature", "geometry": {"type": "Point", "coordinates": [82.90826896561163, -74.90481344769863]}, "properties": {"name": "Emournwick", "kind": "capital", "population": 133596, "nx": 0.7303007471266989, "ny": 0.8216824419926244}}, {"type": "Feature", "geometry": {"type": "Point", "coordinates": [-93.09708890935963, 63.93786852234589]}, "properties": {"name": "Yarch", "kind": "capital", "population": 74105, "nx": 0.24139697525177883, "ny": 0.26708670745600516}}, {"type": "Feature", "geometry": {"type": "Point", "coordinates": [-147.30980484642686, -48.12509434184825]}, "properties": {"name": "Quingsbur", "kind": "capital", "population": 159126, "nx": 0.09080609764881427, "ny": 0.652905522491559}}, {"type": "Feature", "geometry": {"type": "Point", "coordinates": [41.87167077193172, -22.333698811593877]}, "properties": {"name": "Norviolt", "kind": "capital", "population": 68837, "nx": 0.6163101965886992, "ny": 0.5636715193486224}}, {"type": "Feature", "geometry": {"type": "Point", "coordinates": [-129.64078594533873, -20.15768899401168]}, "properties": {"name": "Aelsinderia", "kind": "town", "population": 26617, "nx": 0.13988670570739245, "ny": 0.5571857713030881}}, {"type": "Feature", "geometry": {"type": "Point", "coordinates": [87.13533771266822, -56.57751420456846]}, "properties": {"name": "Irood", "kind": "town", "population": 6508, "nx": 0.7420426047574117, "ny": 0.6914971639746303}}, {"type": "Feature", "geometry": {"type": "Point", "coordinates": [-15.470911389940511, 75.65511904245538]}, "properties": {"name": "Seldbrow", "kind": "town", "population": 16054, "nx": 0.45702524613905415, "ny": 0.1701134632751909}}, {"type": "Feature", "geometry": {"type": "Point", "coordinates": [13.273130337890251, -14.078546617874117]}, "properties": {"name": "Emarch", "kind": "town", "population": 26671, "nx": 0.5368698064941396, "ny": 0.5395066470427758}}, {"type": "Feature", "geometry": {"type": "Point", "coordinates": [-6.1063775206805815, 82.53715793862956]}, "properties": {"name": "Normyria", "kind": "town", "population": 14408, "nx": 0.48303784022033175, "ny": 0.06550340062072314}}, {"type": "Feature", "geometry": {"type": "Point", "coordinates": [103.74481617941558, -79.23835082417561]}, "properties": {"name": "Whitead", "kind": "town", "population": 35094, "nx": 0.788180044942821, "ny": 0.8759939047486681}}, {"type": "Feature", "geometry": {"type": "Point", "coordinates": [-73.79321284813102, -27.59098617529127]}, "properties": {"name": "Duskemarch", "kind": "town", "population": 19073, "nx": 0.29501885319963606, "ny": 0.5797879564907217}}, {"type": "Feature", "geometry": {"type": "Point", "coordinates": [-59.73645975080325, -50.41653521396809]}, "properties": {"name": "Pinoriden", "kind": "town", "population": 22694, "nx": 0.3340653895811021, "ny": 0.6626631226701406}}, {"type": "Feature", "geometry": {"type": "Point", "coordinates": [-51.82096317579749, -82.70071304993185]}, "properties": {"name": "Fenhard", "kind": "town", "population": 31944, "nx": 0.3560528800672292, "ny": 0.9380331906309892}}, {"type": "Feature", "geometry": {"type": "Point", "coordinates": [-32.039462636570846, -46.97982341822628]}, "properties": {"name": "Drale", "kind": "town", "population": 32406, "nx": 0.4110014926761921, "ny": 0.6481916129679831}}, {"type": "Feature", "geometry": {"type": "Point", "coordinates": [60.5446286146022, -31.381821626381658]}, "properties": {"name": "Kessa", "kind": "village", "population": 1877, "nx": 0.6681795239294506, "ny": 0.5918885671388467}}, {"type": "Feature", "geometry": {"type": "Point", "coordinates": [-118.01231742094527, 76.26877267680058]}, "properties": {"name": "Havenpor", "kind": "village", "population": 953, "nx": 0.17218800716404092, "ny": 0.1630850244088825}}, {"type": "Feature", "geometry": {"type": "Point", "coordinates": [-94.6027120006459, -20.88151147482709]}, "properties": {"name": "White", "kind": "village", "population": 347, "nx": 0.23721468888709474, "ny": 0.5593326188937547}}, {"type": "Feature", "geometry": {"type": "Point", "coordinates": [-20.646537336069457, -34.749133099885]}, "properties": {"name": "Quingsburg", "kind": "village", "population": 2403, "nx": 0.44264850739980705, "ny": 0.603052767551007}}, {"type": "Feature", "geometry": {"type": "Point", "coordinates": [-101.55146729651676, 84.51043922171348]}, "properties": {"name": "Falee", "kind": "village", "population": 2283, "nx": 0.21791259084300899, "ny": 0.016525398936572247}}, {"type": "Feature", "geometry": {"type": "Point", "coordinates": [-53.39485521933371, 67.58443795841691]}, "properties": {"name": "Tholden", "kind": "village", "population": 2537, "nx": 0.35168095772407304, "ny": 0.242368126609996}}, {"type": "Feature", "geometry": {"type": "Point", "coordinates": [-26.506436184061812, -84.55326676833259]}, "properties": {"name": "Umber", "kind": "village", "population": 1830, "nx": 0.4263710105998283, "ny": 0.9847230329165508}}, {"type": "Feature", "geometry": {"type": "Point", "coordinates": [-14.268207745761572, 84.8863989391095]}, "properties": {"name": "Umbertop", "kind": "village", "population": 1732, "nx": 0.4603660895951067, "ny": 0.0052181280999273666}}, {"type": "Feature", "geometry": {"type": "Point", "coordinates": [-114.10857629739341, -66.33970359630977]}, "properties": {"name": "Mistead", "kind": "village", "population": 2603, "nx": 0.18303173250724053, "ny": 0.748794514140831}}, {"type": "Feature", "geometry": {"type": "Point", "coordinates": [120.79177588725321, -83.51394471887787]}, "properties": {"name": "Pelsintead", "kind": "village", "population": 624, "nx": 0.8355327107979256, "ny": 0.956878281464963}}, {"type": "Feature", "geometry": {"type": "Point", "coordinates": [-137.43734258829411, -65.31508969465426]}, "properties": {"name": "Thmer", "kind": "village", "population": 211, "nx": 0.11822960392140525, "ny": 0.7418429739686873}}, {"type": "Feature", "geometry": {"type": "Point", "coordinates": [-125.25087290443808, -72.4187702240677]}, "properties": {"name": "Duskenwick", "kind": "village", "population": 1645, "nx": 0.1520809085987831, "ny": 0.7970869709661902}}, {"type": "Feature", "geometry": {"type": "Point", "coordinates": [-95.39224760716702, -83.16478210391021]}, "properties": {"name": "Quinderfart", "kind": "village", "population": 1896, "nx": 0.23502153442453605, "ny": 0.9485143586895022}}, {"type": "Feature", "geometry": {"type": "Point", "coordinates": [-119.3298011713126, 84.0771483610691]}, "properties": {"name": "Gaterstrel", "kind": "village", "population": 246, "nx": 0.1685283300796872, "ny": 0.028636366110656217}}, {"type": "Feature", "geometry": {"type": "Point", "coordinates": [-40.07585848350476, 74.50899434782804]}, "properties": {"name": "Wessa", "kind": "village", "population": 292, "nx": 0.3886781708791534, "ny": 0.18248639111628387}}, {"type": "Feature", "geometry": {"type": "Point", "coordinates": [-106.38268987776566, -75.79800606398739]}, "properties": {"name": "Dunspintage", "kind": "village", "population": 1417, "nx": 0.20449252811731763, "ny": 0.8314964011836717}}]}